CCSDS_OMM_VERS = 2.0
CREATION_DATE  = 
ORIGINATOR     = 

OBJECT_NAME    = ALOS (DAICHI)
OBJECT_ID      = 2006-002A
CENTER_NAME    = EARTH
REF_FRAME      = TEME
TIME_SYSTEM    = UTC
MEAN_ELEMENT_THEORY = SGP/SGP4

EPOCH          = 2026-01-05T14:16:48.612576
MEAN_MOTION    = 14.69578072
ECCENTRICITY   = .0002014
INCLINATION    = 98.1128
RA_OF_ASC_NODE = 321.9191
ARG_OF_PERICENTER = 101.4176
MEAN_ANOMALY   = 258.7256

EPHEMERIS_TYPE = 0
CLASSIFICATION_TYPE = U
NORAD_CAT_ID   = 28931
ELEMENT_SET_NO = 999
REV_AT_EPOCH   = 6421
BSTAR          = .36611479E-3
MEAN_MOTION_DOT = .2125E-4
MEAN_MOTION_DDOT = 0

CCSDS_OMM_VERS = 2.0
CREATION_DATE  = 
ORIGINATOR     = 

OBJECT_NAME    = H-2A R/B
OBJECT_ID      = 2006-002B
CENTER_NAME    = EARTH
REF_FRAME      = TEME
TIME_SYSTEM    = UTC
MEAN_ELEMENT_THEORY = SGP/SGP4

EPOCH          = 2026-01-09T06:19:37.869600
MEAN_MOTION    = 15.15211081
ECCENTRICITY   = .00546312
INCLINATION    = 98.2333
RA_OF_ASC_NODE = 151.2755
ARG_OF_PERICENTER = 83.6593
MEAN_ANOMALY   = 277.0855

EPHEMERIS_TYPE = 0
CLASSIFICATION_TYPE = U
NORAD_CAT_ID   = 28932
ELEMENT_SET_NO = 999
REV_AT_EPOCH   = 8543
BSTAR          = .55995559E-3
MEAN_MOTION_DOT = .10849E-3
MEAN_MOTION_DDOT = 0

CCSDS_OMM_VERS = 2.0
CREATION_DATE  = 
ORIGINATOR     = 

OBJECT_NAME    = RESURS-DK 1
OBJECT_ID      = 2006-021A
CENTER_NAME    = EARTH
REF_FRAME      = TEME
TIME_SYSTEM    = UTC
MEAN_ELEMENT_THEORY = SGP/SGP4

EPOCH          = 2026-01-09T05:09:05.709888
MEAN_MOTION    = 15.12350830
ECCENTRICITY   = .00064453
INCLINATION    = 69.9341
RA_OF_ASC_NODE = 30.8228
ARG_OF_PERICENTER = 236.2566
MEAN_ANOMALY   = 123.7986

EPHEMERIS_TYPE = 0
CLASSIFICATION_TYPE = U
NORAD_CAT_ID   = 29228
ELEMENT_SET_NO = 999
REV_AT_EPOCH   = 7853
BSTAR          = .17041179E-3
MEAN_MOTION_DOT = .2855E-4
MEAN_MOTION_DDOT = 0

CCSDS_OMM_VERS = 2.0
CREATION_DATE  = 
ORIGINATOR     = 

OBJECT_NAME    = CZ-4B R/B
OBJECT_ID      = 2006-046C
CENTER_NAME    = EARTH
REF_FRAME      = TEME
TIME_SYSTEM    = UTC
MEAN_ELEMENT_THEORY = SGP/SGP4

EPOCH          = 2026-01-09T02:16:31.296288
MEAN_MOTION    = 15.16200516
ECCENTRICITY   = .00352177
INCLINATION    = 97.5698
RA_OF_ASC_NODE = 54.1590
ARG_OF_PERICENTER = 113.0758
MEAN_ANOMALY   = 247.4194

EPHEMERIS_TYPE = 0
CLASSIFICATION_TYPE = U
NORAD_CAT_ID   = 29507
ELEMENT_SET_NO = 999
REV_AT_EPOCH   = 5101
BSTAR          = .21002463E-3
MEAN_MOTION_DOT = .405E-4
MEAN_MOTION_DDOT = 0

CCSDS_OMM_VERS = 2.0
CREATION_DATE  = 
ORIGINATOR     = 

OBJECT_NAME    = CZ-2C R/B
OBJECT_ID      = 2007-010B
CENTER_NAME    = EARTH
REF_FRAME      = TEME
TIME_SYSTEM    = UTC
MEAN_ELEMENT_THEORY = SGP/SGP4

EPOCH          = 2026-01-09T06:22:22.395936
MEAN_MOTION    = 14.20223194
ECCENTRICITY   = .00600648
INCLINATION    = 98.3971
RA_OF_ASC_NODE = 125.5314
ARG_OF_PERICENTER = 106.8031
MEAN_ANOMALY   = 253.9748

EPHEMERIS_TYPE = 0
CLASSIFICATION_TYPE = U
NORAD_CAT_ID   = 31114
ELEMENT_SET_NO = 999
REV_AT_EPOCH   = 97128
BSTAR          = .97135748E-4
MEAN_MOTION_DOT = .171E-5
MEAN_MOTION_DDOT = 0

CCSDS_OMM_VERS = 2.0
CREATION_DATE  = 
ORIGINATOR     = 

OBJECT_NAME    = COSMO-SKYMED 1
OBJECT_ID      = 2007-023A
CENTER_NAME    = EARTH
REF_FRAME      = TEME
TIME_SYSTEM    = UTC
MEAN_ELEMENT_THEORY = SGP/SGP4

EPOCH          = 2026-01-09T06:44:04.930368
MEAN_MOTION    = 14.96021120
ECCENTRICITY   = .00016066
INCLINATION    = 97.8850
RA_OF_ASC_NODE = 199.8651
ARG_OF_PERICENTER = 82.0416
MEAN_ANOMALY   = 278.0987

EPHEMERIS_TYPE = 0
CLASSIFICATION_TYPE = U
NORAD_CAT_ID   = 31598
ELEMENT_SET_NO = 999
REV_AT_EPOCH   = 602
BSTAR          = .4216998E-3
MEAN_MOTION_DOT = .4674E-4
MEAN_MOTION_DDOT = 0

CCSDS_OMM_VERS = 2.0
CREATION_DATE  = 
ORIGINATOR     = 

OBJECT_NAME    = COSMOS 2428
OBJECT_ID      = 2007-029A
CENTER_NAME    = EARTH
REF_FRAME      = TEME
TIME_SYSTEM    = UTC
MEAN_ELEMENT_THEORY = SGP/SGP4

EPOCH          = 2026-01-09T06:41:11.081472
MEAN_MOTION    = 14.12905702
ECCENTRICITY   = .00052857
INCLINATION    = 70.9389
RA_OF_ASC_NODE = 328.0592
ARG_OF_PERICENTER = 346.0149
MEAN_ANOMALY   = 14.0825

EPHEMERIS_TYPE = 0
CLASSIFICATION_TYPE = U
NORAD_CAT_ID   = 31792
ELEMENT_SET_NO = 999
REV_AT_EPOCH   = 95570
BSTAR          = .21065712E-3
MEAN_MOTION_DOT = .344E-5
MEAN_MOTION_DDOT = 0

CCSDS_OMM_VERS = 2.0
CREATION_DATE  = 
ORIGINATOR     = 

OBJECT_NAME    = SL-16 R/B
OBJECT_ID      = 2007-029B
CENTER_NAME    = EARTH
REF_FRAME      = TEME
TIME_SYSTEM    = UTC
MEAN_ELEMENT_THEORY = SGP/SGP4

EPOCH          = 2026-01-09T06:08:06.825984
MEAN_MOTION    = 14.14825726
ECCENTRICITY   = .00021915
INCLINATION    = 70.9773
RA_OF_ASC_NODE = 297.3177
ARG_OF_PERICENTER = 273.5931
MEAN_ANOMALY   = 198.5713

EPHEMERIS_TYPE = 0
CLASSIFICATION_TYPE = U
NORAD_CAT_ID   = 31793
ELEMENT_SET_NO = 999
REV_AT_EPOCH   = 95696
BSTAR          = -.27087143E-4
MEAN_MOTION_DOT = -.1E-5
MEAN_MOTION_DDOT = 0

CCSDS_OMM_VERS = 2.0
CREATION_DATE  = 
ORIGINATOR     = 

OBJECT_NAME    = KORONAS-FOTON
OBJECT_ID      = 2009-003A
CENTER_NAME    = EARTH
REF_FRAME      = TEME
TIME_SYSTEM    = UTC
MEAN_ELEMENT_THEORY = SGP/SGP4

EPOCH          = 2026-01-08T22:53:23.958528
MEAN_MOTION    = 15.41798981
ECCENTRICITY   = .00119824
INCLINATION    = 82.4323
RA_OF_ASC_NODE = 337.8939
ARG_OF_PERICENTER = 23.5258
MEAN_ANOMALY   = 336.6533

EPHEMERIS_TYPE = 0
CLASSIFICATION_TYPE = U
NORAD_CAT_ID   = 33504
ELEMENT_SET_NO = 999
REV_AT_EPOCH   = 93653
BSTAR          = .22099908E-3
MEAN_MOTION_DOT = .9415E-4
MEAN_MOTION_DDOT = 0

CCSDS_OMM_VERS = 2.0
CREATION_DATE  = 
ORIGINATOR     = 

OBJECT_NAME    = CZ-2C R/B
OBJECT_ID      = 2011-030B
CENTER_NAME    = EARTH
REF_FRAME      = TEME
TIME_SYSTEM    = UTC
MEAN_ELEMENT_THEORY = SGP/SGP4

EPOCH          = 2026-01-09T03:37:27.507648
MEAN_MOTION    = 14.80997395
ECCENTRICITY   = .00525927
INCLINATION    = 97.8450
RA_OF_ASC_NODE = 327.6580
ARG_OF_PERICENTER = 182.5340
MEAN_ANOMALY   = 188.1423

EPHEMERIS_TYPE = 0
CLASSIFICATION_TYPE = U
NORAD_CAT_ID   = 37731
ELEMENT_SET_NO = 999
REV_AT_EPOCH   = 78128
BSTAR          = .15654084E-3
MEAN_MOTION_DOT = .1187E-4
MEAN_MOTION_DDOT = 0

CCSDS_OMM_VERS = 2.0
CREATION_DATE  = 
ORIGINATOR     = 

OBJECT_NAME    = H-2A R/B
OBJECT_ID      = 2012-025E
CENTER_NAME    = EARTH
REF_FRAME      = TEME
TIME_SYSTEM    = UTC
MEAN_ELEMENT_THEORY = SGP/SGP4

EPOCH          = 2026-01-09T03:45:32.142528
MEAN_MOTION    = 14.94645972
ECCENTRICITY   = .00457068
INCLINATION    = 98.4635
RA_OF_ASC_NODE = 331.5097
ARG_OF_PERICENTER = 146.0017
MEAN_ANOMALY   = 214.4145

EPHEMERIS_TYPE = 0
CLASSIFICATION_TYPE = U
NORAD_CAT_ID   = 38341
ELEMENT_SET_NO = 999
REV_AT_EPOCH   = 73932
BSTAR          = .24985064E-3
MEAN_MOTION_DOT = .2694E-4
MEAN_MOTION_DDOT = 0

CCSDS_OMM_VERS = 2.0
CREATION_DATE  = 
ORIGINATOR     = 

OBJECT_NAME    = SHIJIAN-16 (SJ-16)
OBJECT_ID      = 2013-057A
CENTER_NAME    = EARTH
REF_FRAME      = TEME
TIME_SYSTEM    = UTC
MEAN_ELEMENT_THEORY = SGP/SGP4

EPOCH          = 2026-01-09T07:04:50.759616
MEAN_MOTION    = 14.92121691
ECCENTRICITY   = .00179367
INCLINATION    = 74.9741
RA_OF_ASC_NODE = 297.5125
ARG_OF_PERICENTER = 256.1862
MEAN_ANOMALY   = 103.7330

EPHEMERIS_TYPE = 0
CLASSIFICATION_TYPE = U
NORAD_CAT_ID   = 39358
ELEMENT_SET_NO = 999
REV_AT_EPOCH   = 66264
BSTAR          = .34786146E-3
MEAN_MOTION_DOT = .352E-4
MEAN_MOTION_DDOT = 0

