ALOS (DAICHI)           
1 28931U 06002A   26005.59500709  .00002125  00000+0  36611-3 0  9998
2 28931  98.1128 321.9191 0002014 101.4176 258.7256 14.69578072 64214
H-2A R/B                
1 28932U 06002B   26009.26363275  .00010849  00000+0  55996-3 0  9991
2 28932  98.2333 151.2755 0054631  83.6593 277.0855 15.15211081 85432
RESURS-DK 1             
1 29228U 06021A   26009.21464942  .00002855  00000+0  17041-3 0  9996
2 29228  69.9341  30.8228 0006445 236.2566 123.7986 15.12350830 78536
CZ-4B R/B               
1 29507U 06046C   26009.09480667  .00004050  00000+0  21002-3 0  9992
2 29507  97.5698  54.1590 0035217 113.0758 247.4194 15.16200516 51011
CZ-2C R/B               
1 31114U 07010B   26009.26553699  .00000171  00000+0  97136-4 0  9998
2 31114  98.3971 125.5314 0060064 106.8031 253.9748 14.20223194971288
COSMO-SKYMED 1          
1 31598U 07023A   26009.28061262  .00004674  00000+0  42170-3 0  9999
2 31598  97.8850 199.8651 0001606  82.0416 278.0987 14.96021120  6023
COSMOS 2428             
1 31792U 07029A   26009.27860048  .00000344  00000+0  21066-3 0  9990
2 31792  70.9389 328.0592 0005285 346.0149  14.0825 14.12905702955703
SL-16 R/B               
1 31793U 07029B   26009.25563456 -.00000100  00000+0 -27087-4 0  9994
2 31793  70.9773 297.3177 0002191 273.5931 198.5713 14.14825726956966
KORONAS-FOTON           
1 33504U 09003A   26008.95374952  .00009415  00000+0  22100-3 0  9993
2 33504  82.4323 337.8939 0011982  23.5258 336.6533 15.41798981936535
CZ-2C R/B               
1 37731U 11030B   26009.15101282  .00001187  00000+0  15654-3 0  9993
2 37731  97.8450 327.6580 0052592 182.5340 188.1423 14.80997395781281
H-2A R/B                
1 38341U 12025E   26009.15662202  .00002694  00000+0  24985-3 0  9991
2 38341  98.4635 331.5097 0045706 146.0017 214.4145 14.94645972739321
SHIJIAN-16 (SJ-16)      
1 39358U 13057A   26009.29503194  .00003520  00000+0  34786-3 0  9994
2 39358  74.9741 297.5125 0017936 256.1862 103.7330 14.92121691662646
